{
  "type": "FeatureCollection",
  "features": [
    {
      "type": "Feature",
      "properties": {
        "norad_id": 66573,
        "name": "STARLINK-35650",
        "group": "last-30-days",
        "lat": -35.938256792796025,
        "lon": 52.45510587473808,
        "alt_km": 342.0596832569245,
        "timestamp": "2025-12-02T13:52:16.066104+00:00",
        "meta_object_name": "STARLINK-35650",
        "meta_object_id": "2025-268S",
        "meta_epoch": "2025-12-02T06:00:02.999808",
        "meta_mean_motion": 15.77843376,
        "meta_eccentricity": 0.00015682,
        "meta_inclination": 42.9977,
        "meta_ra_of_asc_node": 183.3748,
        "meta_arg_of_pericenter": 277.0528,
        "meta_mean_anomaly": 258.0749,
        "meta_ephemeris_type": 0,
        "meta_classification_type": "U",
        "meta_norad_cat_id": 66573,
        "meta_element_set_no": 999,
        "meta_rev_at_epoch": 298,
        "meta_bstar": -0.011137166,
        "meta_mean_motion_dot": -0.01712509,
        "meta_mean_motion_ddot": 0,
        "tle_line1": "1 66573U 25268S   25336.25003472 -.01712509  00000+0 -11137-1 0  9992",
        "tle_line2": "2 66573  42.9977 183.3748 0001568 277.0528 258.0749 15.77843376  2987"
      },
      "geometry": {
        "type": "Point",
        "coordinates": [
          52.45510587473808,
          -35.938256792796025
        ]
      }
    },
    {
      "type": "Feature",
      "properties": {
        "norad_id": 66574,
        "name": "STARLINK-35812",
        "group": "last-30-days",
        "lat": -36.75436322218264,
        "lon": 54.65131387683682,
        "alt_km": 342.0001840116556,
        "timestamp": "2025-12-02T13:52:16.066116+00:00",
        "meta_object_name": "STARLINK-35812",
        "meta_object_id": "2025-268T",
        "meta_epoch": "2025-12-02T06:00:02.999808",
        "meta_mean_motion": 15.77841117,
        "meta_eccentricity": 0.00015236,
        "meta_inclination": 42.9979,
        "meta_ra_of_asc_node": 183.3696,
        "meta_arg_of_pericenter": 266.7321,
        "meta_mean_anomaly": 270.3548,
        "meta_ephemeris_type": 0,
        "meta_classification_type": "U",
        "meta_norad_cat_id": 66574,
        "meta_element_set_no": 999,
        "meta_rev_at_epoch": 298,
        "meta_bstar": -0.01123749,
        "meta_mean_motion_dot": -0.01725925,
        "meta_mean_motion_ddot": 0,
        "tle_line1": "1 66574U 25268T   25336.25003472 -.01725925  00000+0 -11237-1 0  9990",
        "tle_line2": "2 66574  42.9979 183.3696 0001523 266.7321 270.3548 15.77841117  2984"
      },
      "geometry": {
        "type": "Point",
        "coordinates": [
          54.65131387683682,
          -36.75436322218264
        ]
      }
    },
    {
      "type": "Feature",
      "properties": {
        "norad_id": 66575,
        "name": "STARLINK-35810",
        "group": "last-30-days",
        "lat": -37.55880877588427,
        "lon": 56.98463266805217,
        "alt_km": 342.2564583588628,
        "timestamp": "2025-12-02T13:52:16.066126+00:00",
        "meta_object_name": "STARLINK-35810",
        "meta_object_id": "2025-268U",
        "meta_epoch": "2025-12-02T06:00:02.999808",
        "meta_mean_motion": 15.77789445,
        "meta_eccentricity": 0.00014194,
        "meta_inclination": 42.9977,
        "meta_ra_of_asc_node": 183.3643,
        "meta_arg_of_pericenter": 266.3062,
        "meta_mean_anomaly": 272.8798,
        "meta_ephemeris_type": 0,
        "meta_classification_type": "U",
        "meta_norad_cat_id": 66575,
        "meta_element_set_no": 999,
        "meta_rev_at_epoch": 298,
        "meta_bstar": -0.011365488,
        "meta_mean_motion_dot": -0.01739561,
        "meta_mean_motion_ddot": 0,
        "tle_line1": "1 66575U 25268U   25336.25003472 -.01739561  00000+0 -11365-1 0  9994",
        "tle_line2": "2 66575  42.9977 183.3643 0001419 266.3062 272.8798 15.77789445  2986"
      },
      "geometry": {
        "type": "Point",
        "coordinates": [
          56.98463266805217,
          -37.55880877588427
        ]
      }
    },
    {
      "type": "Feature",
      "properties": {
        "norad_id": 66576,
        "name": "STARLINK-35814",
        "group": "last-30-days",
        "lat": -38.308876630212715,
        "lon": 59.34250212914862,
        "alt_km": 342.3492751209551,
        "timestamp": "2025-12-02T13:52:16.066136+00:00",
        "meta_object_name": "STARLINK-35814",
        "meta_object_id": "2025-268V",
        "meta_epoch": "2025-12-02T06:00:02.999808",
        "meta_mean_motion": 15.77747761,
        "meta_eccentricity": 0.0001624,
        "meta_inclination": 42.9978,
        "meta_ra_of_asc_node": 183.3589,
        "meta_arg_of_pericenter": 270.3699,
        "meta_mean_anomaly": 270.8886,
        "meta_ephemeris_type": 0,
        "meta_classification_type": "U",
        "meta_norad_cat_id": 66576,
        "meta_element_set_no": 999,
        "meta_rev_at_epoch": 298,
        "meta_bstar": -0.011528583,
        "meta_mean_motion_dot": -0.01758748,
        "meta_mean_motion_ddot": 0,
        "tle_line1": "1 66576U 25268V   25336.25003472 -.01758748  00000+0 -11529-1 0  9995",
        "tle_line2": "2 66576  42.9978 183.3589 0001624 270.3699 270.8886 15.77747761  2987"
      },
      "geometry": {
        "type": "Point",
        "coordinates": [
          59.34250212914862,
          -38.308876630212715
        ]
      }
    },
    {
      "type": "Feature",
      "properties": {
        "norad_id": 66577,
        "name": "STARLINK-35815",
        "group": "last-30-days",
        "lat": -39.016222493081116,
        "lon": 61.76915611124453,
        "alt_km": 342.5932391505703,
        "timestamp": "2025-12-02T13:52:16.066147+00:00",
        "meta_object_name": "STARLINK-35815",
        "meta_object_id": "2025-268W",
        "meta_epoch": "2025-12-02T06:00:02.999808",
        "meta_mean_motion": 15.77703365,
        "meta_eccentricity": 0.00014682,
        "meta_inclination": 42.9978,
        "meta_ra_of_asc_node": 183.3538,
        "meta_arg_of_pericenter": 263.0179,
        "meta_mean_anomaly": 280.3338,
        "meta_ephemeris_type": 0,
        "meta_classification_type": "U",
        "meta_norad_cat_id": 66577,
        "meta_element_set_no": 999,
        "meta_rev_at_epoch": 298,
        "meta_bstar": -0.011797806,
        "meta_mean_motion_dot": -0.01791454,
        "meta_mean_motion_ddot": 0,
        "tle_line1": "1 66577U 25268W   25336.25003472 -.01791454  00000+0 -11798-1 0  9995",
        "tle_line2": "2 66577  42.9978 183.3538 0001468 263.0179 280.3338 15.77703365  2980"
      },
      "geometry": {
        "type": "Point",
        "coordinates": [
          61.76915611124453,
          -39.016222493081116
        ]
      }
    },
    {
      "type": "Feature",
      "properties": {
        "norad_id": 66578,
        "name": "STARLINK-35743",
        "group": "last-30-days",
        "lat": -39.64664820711516,
        "lon": 64.14232927629784,
        "alt_km": 342.5930318669589,
        "timestamp": "2025-12-02T13:52:16.066157+00:00",
        "meta_object_name": "STARLINK-35743",
        "meta_object_id": "2025-268X",
        "meta_epoch": "2025-12-02T06:00:02.999808",
        "meta_mean_motion": 15.77701722,
        "meta_eccentricity": 0.00016012,
        "meta_inclination": 42.9978,
        "meta_ra_of_asc_node": 183.349,
        "meta_arg_of_pericenter": 265.7076,
        "meta_mean_anomaly": 279.6048,
        "meta_ephemeris_type": 0,
        "meta_classification_type": "U",
        "meta_norad_cat_id": 66578,
        "meta_element_set_no": 999,
        "meta_rev_at_epoch": 298,
        "meta_bstar": -0.011963633,
        "meta_mean_motion_dot": -0.01813478,
        "meta_mean_motion_ddot": 0,
        "tle_line1": "1 66578U 25268X   25336.25003472 -.01813478  00000+0 -11964-1 0  9992",
        "tle_line2": "2 66578  42.9978 183.3490 0001601 265.7076 279.6048 15.77701722  2986"
      },
      "geometry": {
        "type": "Point",
        "coordinates": [
          64.14232927629784,
          -39.64664820711516
        ]
      }
    },
    {
      "type": "Feature",
      "properties": {
        "norad_id": 66579,
        "name": "STARLINK-35868",
        "group": "last-30-days",
        "lat": -40.25351029214947,
        "lon": 66.67174597760851,
        "alt_km": 342.93451067623846,
        "timestamp": "2025-12-02T13:52:16.066169+00:00",
        "meta_object_name": "STARLINK-35868",
        "meta_object_id": "2025-268Y",
        "meta_epoch": "2025-12-02T06:00:02.999808",
        "meta_mean_motion": 15.77642286,
        "meta_eccentricity": 0.00015012,
        "meta_inclination": 42.9975,
        "meta_ra_of_asc_node": 183.3434,
        "meta_arg_of_pericenter": 266.5844,
        "meta_mean_anomaly": 280.8565,
        "meta_ephemeris_type": 0,
        "meta_classification_type": "U",
        "meta_norad_cat_id": 66579,
        "meta_element_set_no": 999,
        "meta_rev_at_epoch": 298,
        "meta_bstar": -0.01231028,
        "meta_mean_motion_dot": -0.018548,
        "meta_mean_motion_ddot": 0,
        "tle_line1": "1 66579U 25268Y   25336.25003472 -.01854800  00000+0 -12310-1 0  9993",
        "tle_line2": "2 66579  42.9975 183.3434 0001501 266.5844 280.8565 15.77642286  2980"
      },
      "geometry": {
        "type": "Point",
        "coordinates": [
          66.67174597760851,
          -40.25351029214947
        ]
      }
    }
  ]
}